ONEWEB-0183             
1 48219U 21031K   25335.74214728  .00000278  00000+0  71659-3 0  9991
2 48219  87.8974 329.0516 0001596  92.5180 267.6132 13.14502638222388
ONEWEB-0185             
1 48220U 21031L   25335.69220028  .00000095  00000+0  22112-3 0  9994
2 48220  87.8996 329.0354 0001342  86.5651 273.5632 13.14503720222305
ONEWEB-0187             
1 48221U 21031M   25335.52000189  .00000271  00000+0  69551-3 0  9995
2 48221  87.8980 329.1128 0001553  81.4674 278.6632 13.14503541222297
ONEWEB-0192             
1 48222U 21031N   25335.71835911 -.00000073  00000+0 -23165-3 0  9999
2 48222  87.8977 329.0636 0001816  84.9312 275.2025 13.14501876222238
ONEWEB-0219             
1 48223U 21031P   25335.54550591 -.00000072  00000+0 -22854-3 0  9992
2 48223  87.8984 329.0751 0001522  84.1152 276.0152 13.14502738222411
ONEWEB-0202             
1 48224U 21031Q   25335.52648047  .00000239  00000+0  61007-3 0  9991
2 48224  87.8981 329.0915 0002043  66.5251 293.6093 13.14503438222398
ONEWEB-0204             
1 48225U 21031R   25335.71281492 -.00000117  00000+0 -35080-3 0  9999
2 48225  87.8988 329.0438 0001615  96.9648 263.1665 13.14503450222310
ONEWEB-0205             
1 48226U 21031S   25335.68822897  .00000137  00000+0  33511-3 0  9993
2 48226  87.8985 329.0418 0001588  84.7424 275.3887 13.14502969222328
ONEWEB-0206             
1 48227U 21031T   25335.73739093  .00000232  00000+0  59151-3 0  9999
2 48227  87.8995 329.0213 0002023  90.7170 269.4191 13.14503458222284
ONEWEB-0182             
1 48228U 21031U   25335.50428058  .00000242  00000+0  61841-3 0  9991
2 48228  87.8973 329.0987 0001595  94.2490 265.8822 13.14502610222466
ONEWEB-0186             
1 48229U 21031V   25335.74373701  .00000294  00000+0  75841-3 0  9994
2 48229  87.8992 329.0259 0001664  85.1846 274.9474 13.14503268222443
ONEWEB-0181             
1 48230U 21031W   25335.72152869 -.00000087  00000+0 -26791-3 0  9996
2 48230  87.8974 329.0864 0001731  82.2074 277.9252 13.14501867222296
ONEWEB-0188             
1 48231U 21031X   25335.68347176  .00000255  00000+0  65396-3 0  9998
2 48231  87.8976 329.0904 0001688  88.9323 271.2000 13.14504230222199
ONEWEB-0220             
1 48232U 21031Y   25335.49476755 -.00000061  00000+0 -19931-3 0  9995
2 48232  87.8990 329.0748 0001505  86.2171 273.9130 13.14503754222432
ONEWEB-0165             
1 48233U 21031Z   25335.52332248  .00000253  00000+0  64792-3 0  9994
2 48233  87.8975 329.0972 0001850  77.4452 282.6884 13.14502888222397
ONEWEB-0199             
1 48234U 21031AA  25335.73580395  .00000207  00000+0  52341-3 0  9992
2 48234  87.8984 329.0287 0001859  91.4248 268.7094 13.14503708222328
ONEWEB-0203             
1 48235U 21031AB  25335.72628615  .00000077  00000+0  17412-3 0  9995
2 48235  87.8981 329.0314 0001996  84.1464 275.9893 13.14502718222336
