[{"OBJECT_NAME":"ONEWEB-0183","OBJECT_ID":"2021-031K","EPOCH":"2025-12-01T17:48:41.524992","MEAN_MOTION":13.14502638,"ECCENTRICITY":0.0001596,"INCLINATION":87.8974,"RA_OF_ASC_NODE":329.0516,"ARG_OF_PERICENTER":92.518,"MEAN_ANOMALY":267.6132,"EPHEMERIS_TYPE":0,"CLASSIFICATION_TYPE":"U","NORAD_CAT_ID":48219,"ELEMENT_SET_NO":999,"REV_AT_EPOCH":22238,"BSTAR":0.00071659,"MEAN_MOTION_DOT":2.78e-6,"MEAN_MOTION_DDOT":0},{"OBJECT_NAME":"ONEWEB-0185","OBJECT_ID":"2021-031L","EPOCH":"2025-12-01T16:36:46.104192","MEAN_MOTION":13.1450372,"ECCENTRICITY":0.0001342,"INCLINATION":87.8996,"RA_OF_ASC_NODE":329.0354,"ARG_OF_PERICENTER":86.5651,"MEAN_ANOMALY":273.5632,"EPHEMERIS_TYPE":0,"CLASSIFICATION_TYPE":"U","NORAD_CAT_ID":48220,"ELEMENT_SET_NO":999,"REV_AT_EPOCH":22230,"BSTAR":0.00022112,"MEAN_MOTION_DOT":9.5e-7,"MEAN_MOTION_DDOT":0},{"OBJECT_NAME":"ONEWEB-0187","OBJECT_ID":"2021-031M","EPOCH":"2025-12-01T12:28:48.163296","MEAN_MOTION":13.14503541,"ECCENTRICITY":0.0001553,"INCLINATION":87.898,"RA_OF_ASC_NODE":329.1128,"ARG_OF_PERICENTER":81.4674,"MEAN_ANOMALY":278.6632,"EPHEMERIS_TYPE":0,"CLASSIFICATION_TYPE":"U","NORAD_CAT_ID":48221,"ELEMENT_SET_NO":999,"REV_AT_EPOCH":22229,"BSTAR":0.00069551,"MEAN_MOTION_DOT":2.71e-6,"MEAN_MOTION_DDOT":0},{"OBJECT_NAME":"ONEWEB-0192","OBJECT_ID":"2021-031N","EPOCH":"2025-12-01T17:14:26.227104","MEAN_MOTION":13.14501876,"ECCENTRICITY":0.0001816,"INCLINATION":87.8977,"RA_OF_ASC_NODE":329.0636,"ARG_OF_PERICENTER":84.9312,"MEAN_ANOMALY":275.2025,"EPHEMERIS_TYPE":0,"CLASSIFICATION_TYPE":"U","NORAD_CAT_ID":48222,"ELEMENT_SET_NO":999,"REV_AT_EPOCH":22223,"BSTAR":-0.00023165,"MEAN_MOTION_DOT":-7.3e-7,"MEAN_MOTION_DDOT":0},{"OBJECT_NAME":"ONEWEB-0219","OBJECT_ID":"2021-031P","EPOCH":"2025-12-01T13:05:31.710624","MEAN_MOTION":13.14502738,"ECCENTRICITY":0.0001522,"INCLINATION":87.8984,"RA_OF_ASC_NODE":329.0751,"ARG_OF_PERICENTER":84.1152,"MEAN_ANOMALY":276.0152,"EPHEMERIS_TYPE":0,"CLASSIFICATION_TYPE":"U","NORAD_CAT_ID":48223,"ELEMENT_SET_NO":999,"REV_AT_EPOCH":22241,"BSTAR":-0.00022854,"MEAN_MOTION_DOT":-7.2e-7,"MEAN_MOTION_DDOT":0},{"OBJECT_NAME":"ONEWEB-0202","OBJECT_ID":"2021-031Q","EPOCH":"2025-12-01T12:38:07.912608","MEAN_MOTION":13.14503438,"ECCENTRICITY":0.0002043,"INCLINATION":87.8981,"RA_OF_ASC_NODE":329.0915,"ARG_OF_PERICENTER":66.5251,"MEAN_ANOMALY":293.6093,"EPHEMERIS_TYPE":0,"CLASSIFICATION_TYPE":"U","NORAD_CAT_ID":48224,"ELEMENT_SET_NO":999,"REV_AT_EPOCH":22239,"BSTAR":0.00061007,"MEAN_MOTION_DOT":2.39e-6,"MEAN_MOTION_DDOT":0},{"OBJECT_NAME":"ONEWEB-0204","OBJECT_ID":"2021-031R","EPOCH":"2025-12-01T17:06:27.209088","MEAN_MOTION":13.1450345,"ECCENTRICITY":0.0001615,"INCLINATION":87.8988,"RA_OF_ASC_NODE":329.0438,"ARG_OF_PERICENTER":96.9648,"MEAN_ANOMALY":263.1665,"EPHEMERIS_TYPE":0,"CLASSIFICATION_TYPE":"U","NORAD_CAT_ID":48225,"ELEMENT_SET_NO":999,"REV_AT_EPOCH":22231,"BSTAR":-0.0003508,"MEAN_MOTION_DOT":-1.17e-6,"MEAN_MOTION_DDOT":0},{"OBJECT_NAME":"ONEWEB-0205","OBJECT_ID":"2021-031S","EPOCH":"2025-12-01T16:31:02.983008","MEAN_MOTION":13.14502969,"ECCENTRICITY":0.0001588,"INCLINATION":87.8985,"RA_OF_ASC_NODE":329.0418,"ARG_OF_PERICENTER":84.7424,"MEAN_ANOMALY":275.3887,"EPHEMERIS_TYPE":0,"CLASSIFICATION_TYPE":"U","NORAD_CAT_ID":48226,"ELEMENT_SET_NO":999,"REV_AT_EPOCH":22232,"BSTAR":0.00033511,"MEAN_MOTION_DOT":1.37e-6,"MEAN_MOTION_DDOT":0},{"OBJECT_NAME":"ONEWEB-0206","OBJECT_ID":"2021-031T","EPOCH":"2025-12-01T17:41:50.576352","MEAN_MOTION":13.14503458,"ECCENTRICITY":0.0002023,"INCLINATION":87.8995,"RA_OF_ASC_NODE":329.0213,"ARG_OF_PERICENTER":90.717,"MEAN_ANOMALY":269.4191,"EPHEMERIS_TYPE":0,"CLASSIFICATION_TYPE":"U","NORAD_CAT_ID":48227,"ELEMENT_SET_NO":999,"REV_AT_EPOCH":22228,"BSTAR":0.00059151,"MEAN_MOTION_DOT":2.32e-6,"MEAN_MOTION_DDOT":0},{"OBJECT_NAME":"ONEWEB-0182","OBJECT_ID":"2021-031U","EPOCH":"2025-12-01T12:06:09.842112","MEAN_MOTION":13.1450261,"ECCENTRICITY":0.0001595,"INCLINATION":87.8973,"RA_OF_ASC_NODE":329.0987,"ARG_OF_PERICENTER":94.249,"MEAN_ANOMALY":265.8822,"EPHEMERIS_TYPE":0,"CLASSIFICATION_TYPE":"U","NORAD_CAT_ID":48228,"ELEMENT_SET_NO":999,"REV_AT_EPOCH":22246,"BSTAR":0.00061841,"MEAN_MOTION_DOT":2.42e-6,"MEAN_MOTION_DDOT":0},{"OBJECT_NAME":"ONEWEB-0186","OBJECT_ID":"2021-031V","EPOCH":"2025-12-01T17:50:58.877664","MEAN_MOTION":13.14503268,"ECCENTRICITY":0.0001664,"INCLINATION":87.8992,"RA_OF_ASC_NODE":329.0259,"ARG_OF_PERICENTER":85.1846,"MEAN_ANOMALY":274.9474,"EPHEMERIS_TYPE":0,"CLASSIFICATION_TYPE":"U","NORAD_CAT_ID":48229,"ELEMENT_SET_NO":999,"REV_AT_EPOCH":22244,"BSTAR":0.00075841,"MEAN_MOTION_DOT":2.94e-6,"MEAN_MOTION_DDOT":0},{"OBJECT_NAME":"ONEWEB-0181","OBJECT_ID":"2021-031W","EPOCH":"2025-12-01T17:19:00.078816","MEAN_MOTION":13.14501867,"ECCENTRICITY":0.0001731,"INCLINATION":87.8974,"RA_OF_ASC_NODE":329.0864,"ARG_OF_PERICENTER":82.2074,"MEAN_ANOMALY":277.9252,"EPHEMERIS_TYPE":0,"CLASSIFICATION_TYPE":"U","NORAD_CAT_ID":48230,"ELEMENT_SET_NO":999,"REV_AT_EPOCH":22229,"BSTAR":-0.00026791,"MEAN_MOTION_DOT":-8.7e-7,"MEAN_MOTION_DDOT":0},{"OBJECT_NAME":"ONEWEB-0188","OBJECT_ID":"2021-031X","EPOCH":"2025-12-01T16:24:11.960064","MEAN_MOTION":13.1450423,"ECCENTRICITY":0.0001688,"INCLINATION":87.8976,"RA_OF_ASC_NODE":329.0904,"ARG_OF_PERICENTER":88.9323,"MEAN_ANOMALY":271.2,"EPHEMERIS_TYPE":0,"CLASSIFICATION_TYPE":"U","NORAD_CAT_ID":48231,"ELEMENT_SET_NO":999,"REV_AT_EPOCH":22219,"BSTAR":0.00065396,"MEAN_MOTION_DOT":2.55e-6,"MEAN_MOTION_DDOT":0},{"OBJECT_NAME":"ONEWEB-0220","OBJECT_ID":"2021-031Y","EPOCH":"2025-12-01T11:52:27.916320","MEAN_MOTION":13.14503754,"ECCENTRICITY":0.0001505,"INCLINATION":87.899,"RA_OF_ASC_NODE":329.0748,"ARG_OF_PERICENTER":86.2171,"MEAN_ANOMALY":273.913,"EPHEMERIS_TYPE":0,"CLASSIFICATION_TYPE":"U","NORAD_CAT_ID":48232,"ELEMENT_SET_NO":999,"REV_AT_EPOCH":22243,"BSTAR":-0.00019931,"MEAN_MOTION_DOT":-6.1e-7,"MEAN_MOTION_DDOT":0},{"OBJECT_NAME":"ONEWEB-0165","OBJECT_ID":"2021-031Z","EPOCH":"2025-12-01T12:33:35.062272","MEAN_MOTION":13.14502888,"ECCENTRICITY":0.000185,"INCLINATION":87.8975,"RA_OF_ASC_NODE":329.0972,"ARG_OF_PERICENTER":77.4452,"MEAN_ANOMALY":282.6884,"EPHEMERIS_TYPE":0,"CLASSIFICATION_TYPE":"U","NORAD_CAT_ID":48233,"ELEMENT_SET_NO":999,"REV_AT_EPOCH":22239,"BSTAR":0.00064792,"MEAN_MOTION_DOT":2.53e-6,"MEAN_MOTION_DDOT":0},{"OBJECT_NAME":"ONEWEB-0199","OBJECT_ID":"2021-031AA","EPOCH":"2025-12-01T17:39:33.461280","MEAN_MOTION":13.14503708,"ECCENTRICITY":0.0001859,"INCLINATION":87.8984,"RA_OF_ASC_NODE":329.0287,"ARG_OF_PERICENTER":91.4248,"MEAN_ANOMALY":268.7094,"EPHEMERIS_TYPE":0,"CLASSIFICATION_TYPE":"U","NORAD_CAT_ID":48234,"ELEMENT_SET_NO":999,"REV_AT_EPOCH":22232,"BSTAR":0.00052341,"MEAN_MOTION_DOT":2.07e-6,"MEAN_MOTION_DDOT":0},{"OBJECT_NAME":"ONEWEB-0203","OBJECT_ID":"2021-031AB","EPOCH":"2025-12-01T17:25:51.123360","MEAN_MOTION":13.14502718,"ECCENTRICITY":0.0001996,"INCLINATION":87.8981,"RA_OF_ASC_NODE":329.0314,"ARG_OF_PERICENTER":84.1464,"MEAN_ANOMALY":275.9893,"EPHEMERIS_TYPE":0,"CLASSIFICATION_TYPE":"U","NORAD_CAT_ID":48235,"ELEMENT_SET_NO":999,"REV_AT_EPOCH":22233,"BSTAR":0.00017412,"MEAN_MOTION_DOT":7.7e-7,"MEAN_MOTION_DDOT":0}]
